{
    "links": {
        "self": "http://www.neowsapp.com/rest/v1/neo/3942358?api_key=iIulBulltgU6a56xZRHN4H3l9WmuAYTsLGpBGhQ2"
    },
    "id": "3942358",
    "neo_reference_id": "3942358",
    "name": "(2019 YF)",
    "designation": "2019 YF",
    "nasa_jpl_url": "http://ssd.jpl.nasa.gov/sbdb.cgi?sstr=3942358",
    "absolute_magnitude_h": 24.7,
    "estimated_diameter": {
        "kilometers": {
            "estimated_diameter_min": 0.0305179233,
            "estimated_diameter_max": 0.0682401509
        },
        "meters": {
            "estimated_diameter_min": 30.5179232594,
            "estimated_diameter_max": 68.2401509401
        },
        "miles": {
            "estimated_diameter_min": 0.0189629525,
            "estimated_diameter_max": 0.0424024508
        },
        "feet": {
            "estimated_diameter_min": 100.1244233463,
            "estimated_diameter_max": 223.8850168104
        }
    },
    "is_potentially_hazardous_asteroid": false,
    "close_approach_data": [
        {
            "close_approach_date": "2019-12-16",
            "close_approach_date_full": "2019-Dec-16 22:55",
            "epoch_date_close_approach": 1576536900000,
            "relative_velocity": {
                "kilometers_per_second": "14.4833746614",
                "kilometers_per_hour": "52140.1487810674",
                "miles_per_hour": "32397.8607801027"
            },
            "miss_distance": {
                "astronomical": "0.1093299789",
                "lunar": "42.5293617921",
                "kilometers": "16355531.970584943",
                "miles": "10162856.3086124934"
            },
            "orbiting_body": "Earth"
        }
    ],
    "orbital_data": {
        "orbit_id": "2",
        "orbit_determination_date": "2019-12-21 06:08:02",
        "first_observation_date": "2019-12-17",
        "last_observation_date": "2019-12-21",
        "data_arc_in_days": 4,
        "observations_used": 18,
        "orbit_uncertainty": "9",
        "minimum_orbit_intersection": ".107372",
        "jupiter_tisserand_invariant": "4.401",
        "epoch_osculation": "2458835.5",
        "eccentricity": ".2737411299585821",
        "semi_major_axis": "1.49659710930176",
        "inclination": "26.38268441297956",
        "ascending_node_longitude": "265.2265878046458",
        "orbital_period": "668.7376580373319",
        "perihelion_distance": "1.086916925508749",
        "perihelion_argument": "168.0222276410294",
        "aphelion_distance": "1.906277293094772",
        "perihelion_time": "2458824.363823783719",
        "mean_anomaly": "5.994912040137208",
        "mean_motion": ".5383276919929387",
        "equinox": "J2000",
        "orbit_class": {
            "orbit_class_type": "AMO",
            "orbit_class_description": "Near-Earth asteroid orbits similar to that of 1221 Amor",
            "orbit_class_range": "1.017 AU < q (perihelion) < 1.3 AU"
        }
    },
    "is_sentry_object": false
}